NORAD_CAT_ID,OBJECT_NAME,OBJECT_TYPE,EPOCH,MEAN_MOTION,ECCENTRICITY,INCLINATION,RA_OF_ASC_NODE,ARG_OF_PERICENTER,MEAN_ANOMALY,BSTAR,MEAN_MOTION_DOT,MEAN_MOTION_DDOT,TLE_LINE0,TLE_LINE1,TLE_LINE2,SEMIMAJOR_AXIS,PERIOD,APOGEE,PERIGEE,DECAYED
53889.0,STARLINK-5031,PAYLOAD,2023-04-18 04:02:41,15.08849923,0.0001144,53.2169,27.1811,97.9557,262.1565,0.00017112,2.437e-05,0.0,0 STARLINK-5031,1 53889U 22119D   23108.16853912  .00002437  00000-0  17112-3 0  9998,2 53889  53.2169  27.1811 0001144  97.9557 262.1565 15.08849923 31766,6917.85,95.437,540.506,538.924,0.0
53889.0,STARLINK-5031,PAYLOAD,2023-04-18 18:21:10,15.0883677,0.000163,53.2177,24.5087,69.8584,290.2583,4.1227e-05,3.68e-06,0.0,0 STARLINK-5031,1 53889U 22119D   23108.76470963  .00000368  00000-0  41227-4 0  9991,2 53889  53.2177  24.5087 0001630  69.8584 290.2583 15.08836770 32274,6917.89,95.438,540.883,538.628,0.0
53889.0,STARLINK-5031,PAYLOAD,2023-04-19 03:53:29,15.08848099,0.0001321,53.2182,22.7202,89.1085,271.0058,0.00016479,2.336e-05,0.0,0 STARLINK-5031,1 53889U 22119D   23109.16214421  .00002336  00000-0  16479-3 0  9998,2 53889  53.2182  22.7202 0001321  89.1085 271.0058 15.08848099 32335,6917.856,95.437,540.634,538.807,0.0
53889.0,STARLINK-5031,PAYLOAD,2023-04-20 00:33:30,15.08843473,0.0001368,53.2183,18.8541,93.0906,267.0243,0.0001182,1.594e-05,0.0,0 STARLINK-5031,1 53889U 22119D   23110.02326576  .00001594  00000-0  11820-3 0  9990,2 53889  53.2183  18.8541 0001368  93.0906 267.0243 15.08843473 32045,6917.87,95.437,540.681,538.788,0.0
53889.0,STARLINK-5031,PAYLOAD,2023-04-21 01:59:40,15.08842337,0.000109,53.2179,14.0961,99.3862,260.7254,0.00011602,1.559e-05,0.0,0 STARLINK-5031,1 53889U 22119D   23111.08311058  .00001559  00000-0  11602-3 0  9995,2 53889  53.2179  14.0961 0001090  99.3862 260.7254 15.08842337 32204,6917.873,95.437,540.492,538.984,0.0
53889.0,STARLINK-5031,PAYLOAD,2023-04-21 09:56:36,15.08840557,0.0001087,53.2183,12.6104,100.1819,259.9295,6.8002e-05,7.95e-06,0.0,0 STARLINK-5031,1 53889U 22119D   23111.41431128  .00000795  00000-0  68002-4 0  9991,2 53889  53.2183  12.6104 0001087 100.1819 259.9295 15.08840557 32679,6917.879,95.438,540.496,538.992,0.0
53889.0,STARLINK-5031,PAYLOAD,2023-04-21 17:53:32,15.0884008,0.0001033,53.2172,11.1248,106.1208,253.9898,-1.0373e-05,-4.53e-06,0.0,0 STARLINK-5031,1 53889U 22119D   23111.74551226 -.00000453  00000-0 -10373-4 0  9990,2 53889  53.2172  11.1248 0001033 106.1208 253.9898 15.08840080 32729,6917.88,95.438,540.46,539.031,0.0
53889.0,STARLINK-5031,PAYLOAD,2023-04-22 00:15:04,15.08849382,0.0001181,53.2153,9.9366,102.7106,257.4018,0.00012017,1.626e-05,0.0,0 STARLINK-5031,1 53889U 22119D   23112.01046533  .00001626  00000-0  12017-3 0  9998,2 53889  53.2153   9.9366 0001181 102.7106 257.4018 15.08849382 32768,6917.852,95.437,540.534,538.9,0.0
53889.0,STARLINK-5031,PAYLOAD,2023-04-22 17:44:18,15.08843363,0.0001265,53.2175,6.6639,108.4117,251.7013,7.6097e-05,9.24e-06,0.0,0 STARLINK-5031,1 53889U 22119D   23112.73910868  .00000924  00000-0  76097-4 0  9997,2 53889  53.2175   6.6639 0001265 108.4117 251.7013 15.08843363 32874,6917.87,95.437,540.61,538.86,0.0
53889.0,STARLINK-5031,PAYLOAD,2023-04-23 01:41:14,15.08844904,0.0001184,53.2185,5.1769,110.2444,249.8675,0.00011402,1.527e-05,0.0,0 STARLINK-5031,1 53889U 22119D   23113.07030755  .00001527  00000-0  11402-3 0  9991,2 53889  53.2185   5.1769 0001184 110.2444 249.8675 15.08844904 32927,6917.865,95.437,540.549,538.911,0.0
53889.0,STARLINK-5031,PAYLOAD,2023-04-23 20:45:52,15.08839294,0.0001275,53.2188,1.6122,110.5975,249.5154,4.8877e-05,4.9e-06,0.0,0 STARLINK-5031,1 53889U 22119D   23113.86519567  .00000490  00000-0  48877-4 0  9996,2 53889  53.2188   1.6122 0001275 110.5975 249.5154 15.08839294 33046,6917.883,95.438,540.63,538.866,0.0
53889.0,STARLINK-5031,PAYLOAD,2023-04-24 01:32:01,15.08848689,0.0001547,53.2195,0.7202,111.5752,248.5406,0.00011245,1.503e-05,0.0,0 STARLINK-5031,1 53889U 22119D   23114.06390836  .00001503  00000-0  11245-3 0  9999,2 53889  53.2195   0.7202 0001547 111.5752 248.5406 15.08848689 32652,6917.854,95.437,540.789,538.649,0.0
53889.0,STARLINK-5031,PAYLOAD,2023-04-24 23:47:23,15.08892688,0.0001155,53.2162,356.5567,96.8212,263.2911,0.0011196,0.00017601,0.0,0 STARLINK-5031,1 53889U 22119D   23114.99124350  .00017601  00000-0  11196-2 0  9997,2 53889  53.2162 356.5567 0001155  96.8212 263.2911 15.08892688 32791,6917.719,95.434,540.383,538.785,0.0
53889.0,STARLINK-5031,PAYLOAD,2023-04-26 02:49:00,15.08772065,0.0001416,53.2159,351.5008,78.7687,281.3465,-0.00064845,-0.00010574,0.0,0 STARLINK-5031,1 53889U 22119D   23116.11736766 -.00010574  00000-0 -64845-3 0  9997,2 53889  53.2159 351.5008 0001416  78.7687 281.3465 15.08772065 33384,6918.088,95.442,540.933,538.973,0.0
53889.0,STARLINK-5031,PAYLOAD,2023-04-26 21:53:38,15.08831273,0.0001912,53.2161,347.934,74.1704,285.9499,0.0015486,0.00024438,0.0,0 STARLINK-5031,1 53889U 22119D   23116.91224582  .00024438  00000-0  15486-2 0  9991,2 53889  53.2161 347.9340 0001912  74.1704 285.9499 15.08831273 33504,6917.907,95.438,541.095,538.449,0.0
53889.0,STARLINK-5031,PAYLOAD,2023-04-26 23:29:01,15.08829078,0.0001383,53.2161,347.6367,66.3214,293.7923,0.0015973,0.00025217,0.0,0 STARLINK-5031,1 53889U 22119D   23116.97848751  .00025217  00000-0  15973-2 0  9994,2 53889  53.2161 347.6367 0001383  66.3214 293.7923 15.08829078 33094,6917.914,95.438,540.736,538.822,0.0
53889.0,STARLINK-5031,PAYLOAD,2023-04-28 00:55:10,15.08871246,0.0001406,53.2158,342.8757,67.5917,292.5224,0.00050266,7.728e-05,0.0,0 STARLINK-5031,1 53889U 22119D   23118.03831237  .00007728  00000-0  50266-3 0  9996,2 53889  53.2158 342.8757 0001406  67.5917 292.5224 15.08871246 33252,6917.785,95.436,540.623,538.677,0.0
53889.0,STARLINK-5031,PAYLOAD,2023-04-28 12:02:52,15.08844879,9.72e-05,53.2165,340.7932,109.9101,250.1996,-0.00021852,-3.764e-05,0.0,0 STARLINK-5031,1 53889U 22119D   23118.50199161 -.00003764  00000-0 -21852-3 0  9998,2 53889  53.2165 340.7932 0000972 109.9101 250.1996 15.08844879 33321,6917.865,95.437,540.403,539.058,0.0
53889.0,STARLINK-5031,PAYLOAD,2023-04-29 11:53:39,15.08841175,0.0001099,53.2159,336.3335,84.8675,275.2443,-0.00016101,-2.849e-05,0.0,0 STARLINK-5031,1 53889U 22119D   23119.49559522 -.00002849  00000-0 -16101-3 0  9992,2 53889  53.2159 336.3335 0001099  84.8675 275.2443 15.08841175 33893,6917.877,95.437,540.502,538.982,0.0
53889.0,STARLINK-5031,PAYLOAD,2023-04-29 16:39:48,15.08844561,0.0001049,53.2159,335.4414,92.5967,267.5145,-2.9007e-05,-7.49e-06,0.0,0 STARLINK-5031,1 53889U 22119D   23119.69431370 -.00000749  00000-0 -29007-4 0  9991,2 53889  53.2159 335.4414 0001049  92.5967 267.5145 15.08844561 33509,6917.866,95.437,540.457,539.006,0.0
53889.0,STARLINK-5031,PAYLOAD,2023-04-30 02:12:07,15.08851492,0.0001012,53.2159,333.6572,99.3943,260.7164,0.000507,7.793e-05,0.0,0 STARLINK-5031,1 53889U 22119D   23120.09175267  .00007793  00000-0  50700-3 0  9994,2 53889  53.2159 333.6572 0001012  99.3943 260.7164 15.08851492 33982,6917.845,95.437,540.41,539.01,0.0
53889.0,STARLINK-5031,PAYLOAD,2023-04-30 18:05:59,15.08837181,0.0001079,53.2156,330.6836,92.2846,267.8269,6.2833e-05,7.12e-06,0.0,0 STARLINK-5031,1 53889U 22119D   23120.75415820  .00000712  00000-0  62833-4 0  9994,2 53889  53.2156 330.6836 0001079  92.2846 267.8269 15.08837181 33664,6917.889,95.438,540.5,539.008,0.0
53889.0,STARLINK-5031,PAYLOAD,2023-05-01 13:10:37,15.08838798,9.76e-05,53.2157,327.1151,89.3458,270.7646,6.7493e-05,7.87e-06,0.0,0 STARLINK-5031,1 53889U 22119D   23121.54903957  .00000787  00000-0  67493-4 0  9994,2 53889  53.2157 327.1151 0000976  89.3458 270.7646 15.08838798 34205,6917.884,95.438,540.424,539.074,0.0
53889.0,STARLINK-5031,PAYLOAD,2023-05-01 21:07:32,15.08846749,9.26e-05,53.2153,325.6282,84.6376,275.4722,0.00027214,4.047e-05,0.0,0 STARLINK-5031,1 53889U 22119D   23121.88023762  .00004047  00000-0  27214-3 0  9997,2 53889  53.2153 325.6282 0000926  84.6376 275.4722 15.08846749 34258,6917.86,95.437,540.365,539.084,0.0
53889.0,STARLINK-5031,PAYLOAD,2023-05-01 22:42:55,15.08848881,9.86e-05,53.2152,325.331,87.5214,272.5891,0.00038445,5.837e-05,0.0,0 STARLINK-5031,1 53889U 22119D   23121.94647743  .00005837  00000-0  38445-3 0  9991,2 53889  53.2152 325.3310 0000986  87.5214 272.5891 15.08848881 33843,6917.853,95.437,540.4,539.036,0.0
53889.0,STARLINK-5031,PAYLOAD,2023-05-02 13:01:24,15.08842716,0.0001024,53.2147,322.655,83.1314,276.9794,0.00020604,2.993e-05,0.0,0 STARLINK-5031,1 53889U 22119D   23122.54263922  .00002993  00000-0  20604-3 0  9999,2 53889  53.2147 322.6550 0001024  83.1314 276.9794 15.08842716 34358,6917.872,95.437,540.445,539.029,0.0
53889.0,STARLINK-5031,PAYLOAD,2023-05-02 19:22:56,15.08844918,0.000103,53.215,321.4656,77.9284,282.1823,0.00021894,3.199e-05,0.0,0 STARLINK-5031,1 53889U 22119D   23122.80759897  .00003199  00000-0  21894-3 0  9990,2 53889  53.2150 321.4656 0001030  77.9284 282.1823 15.08844918 33975,6917.865,95.437,540.443,539.018,0.0
53889.0,STARLINK-5031,PAYLOAD,2023-05-02 20:58:19,15.08846747,0.0001042,53.215,321.1682,78.2994,281.8115,0.00024614,3.632e-05,0.0,0 STARLINK-5031,1 53889U 22119D   23122.87383809  .00003632  00000-0  24614-3 0  9998,2 53889  53.2150 321.1682 0001042  78.2994 281.8115 15.08846747 34407,6917.86,95.437,540.446,539.004,0.0
53889.0,STARLINK-5031,PAYLOAD,2023-05-03 19:13:43,15.0884303,0.0001127,53.2152,317.0045,69.7508,290.3605,9.3604e-05,1.202e-05,0.0,0 STARLINK-5031,1 53889U 22119D   23123.80120063  .00001202  00000-0  93604-4 0  9990,2 53889  53.2152 317.0045 0001127  69.7508 290.3605 15.08843030 34126,6917.871,95.437,540.516,538.956,0.0
53889.0,STARLINK-5031,PAYLOAD,2023-05-04 12:42:58,15.08840905,0.0001045,53.215,313.7316,85.8746,274.2366,4.8264e-05,4.8e-06,0.0,0 STARLINK-5031,1 53889U 22119D   23124.52984167  .00000480  00000-0  48264-4 0  9992,2 53889  53.2150 313.7316 0001045  85.8746 274.2366 15.08840905 34651,6917.878,95.437,540.466,539.02,0.0
